     2.10           GLONASS NAV DATA                        RINEX VERSION / TYPE
SPIDER V4,0,0,3554                      2015 03 16 01:21    PGM / RUN BY / DATE 
  2015     2    28   -1.210719347000e-008                    CORR TO SYSTEM TIME 
    16                                                      LEAP SECONDS        
                                                            END OF HEADER       
 2 15 02 28 08 15  0.0 1.207459717989D-04 1.818989403546D-12 2.880000000000D+04
    1.191309570313D+04-1.134801864624D+00-0.000000000000D+00 0.000000000000D+00
   -1.264234863281D+03 2.863181114197D+00 0.000000000000D+00-4.000000000000D+00
    2.255341308594D+04 7.579965591431D-01-2.793967723846D-09 0.000000000000D+00
 1 15 02 28 08 15  0.0-1.558586955070D-04 0.000000000000D+00 2.880000000000D+04
    3.699870605469D+03-8.586673736572D-01-0.000000000000D+00 0.000000000000D+00
    1.640309863281D+04 2.482969284058D+00-0.000000000000D+00 1.000000000000D+00
    1.918332910156D+04-1.955385208130D+00-1.862645149231D-09 0.000000000000D+00
12 15 02 28 08 15  0.0-3.932975232601D-06 1.818989403546D-12 2.880000000000D+04
    1.563328710938D+04 8.727264404297D-02 2.793967723846D-09 0.000000000000D+00
    2.024137402344D+04-2.170610427856D-01 0.000000000000D+00-1.000000000000D+00
    8.175102539063D+02 3.570506095886D+00-9.313225746155D-10 0.000000000000D+00
17 15 02 28 08 15  0.0 1.505902037024D-04 9.094947017729D-13 2.880000000000D+04
    2.181188378906D+04 1.388858795166D+00 9.313225746155D-10 0.000000000000D+00
   -8.090967285156D+03-3.746995925903D-01 9.313225746155D-10 4.000000000000D+00
    1.045778564453D+04-3.199146270752D+00-1.862645149231D-09 0.000000000000D+00
18 15 02 28 08 15  0.0 3.974419087172D-05 1.818989403546D-12 2.880000000000D+04
    6.873659179688D+03 2.941177368164D+00-9.313225746155D-10 0.000000000000D+00
   -1.134042968750D+04-4.979867935181D-01 0.000000000000D+00-3.000000000000D+00
    2.182298730469D+04-1.179744720459D+00-1.862645149231D-09 0.000000000000D+00
24 15 02 28 08 15  0.0-1.217098906636D-04-0.000000000000D+00 2.880000000000D+04
    2.425569531250D+04-1.097589492798D+00 2.793967723846D-09 0.000000000000D+00
    1.400961914063D+02-2.046680450439D-02 9.313225746155D-10 2.000000000000D+00
   -7.923245605469D+03-3.366320610046D+00-9.313225746155D-10 0.000000000000D+00
11 15 02 28 08 45  0.0 1.882202923298D-06 0.000000000000D+00 3.060000000000D+04
    1.400090820313D+03-2.016235351563D+00-9.313225746155D-10 0.000000000000D+00
    1.450727490234D+04-2.042974472046D+00-0.000000000000D+00 0.000000000000D+00
    2.090670117188D+04 1.560647010803D+00-1.862645149231D-09 0.000000000000D+00
 3 15 02 28 08 45  0.0 3.618840128183D-05 9.094947017729D-13 3.060000000000D+04
    1.197091992188D+04-6.564245223999D-01-0.000000000000D+00 0.000000000000D+00
   -1.452054443359D+04 2.265102386475D+00 0.000000000000D+00 5.000000000000D+00
    1.726343408203D+04 2.362311363220D+00-1.862645149231D-09 0.000000000000D+00
 2 15 02 28 08 45  0.0 1.207496970892D-04 1.818989403546D-12 3.060000000000D+04
    1.022790429688D+04-7.195024490356D-01-0.000000000000D+00 0.000000000000D+00
    4.112132812500D+03 3.062241554260D+00-0.000000000000D+00-4.000000000000D+00
    2.303142431641D+04-2.303867340088D-01-2.793967723846D-09 0.000000000000D+00
 1 15 02 28 08 45  0.0-1.558586955070D-04 0.000000000000D+00 3.060000000000D+04
    2.610897949219D+03-3.655481338501D-01-0.000000000000D+00 0.000000000000D+00
    2.049491601563D+04 2.018891334534D+00-9.313225746155D-10 1.000000000000D+00
    1.496775683594D+04-2.698154449463D+00-1.862645149231D-09 0.000000000000D+00
12 15 02 28 08 45  0.0-3.929249942303D-06 1.818989403546D-12 3.060000000000D+04
    1.522091699219D+04-5.696601867676D-01 1.862645149231D-09 0.000000000000D+00
    1.927964306641D+04-8.175239562988D-01-0.000000000000D+00-1.000000000000D+00
    7.130778320313D+03 3.399044990540D+00-1.862645149231D-09 0.000000000000D+00
17 15 02 28 08 45  0.0 1.505920663476D-04 9.094947017729D-13 3.060000000000D+04
    2.353829345703D+04 5.208988189697D-01 1.862645149231D-09 0.000000000000D+00
   -8.774001464844D+03-3.422174453735D-01 9.313225746155D-10 4.000000000000D+00
    4.369226074219D+03-3.522015571594D+00-1.862645149231D-09 0.000000000000D+00
18 15 02 28 08 45  0.0 3.974791616201D-05 1.818989403546D-12 3.060000000000D+04
    1.176355322266D+04 2.450921058655D+00-0.000000000000D+00 0.000000000000D+00
   -1.254551562500D+04-8.128032684326D-01 0.000000000000D+00-3.000000000000D+00
    1.888625878906D+04-2.062069892883D+00-1.862645149231D-09 0.000000000000D+00
24 15 02 28 08 45  0.0-1.217108219862D-04-0.000000000000D+00 3.060000000000D+04
    2.159141552734D+04-1.830968856812D+00 3.725290298462D-09 0.000000000000D+00
    4.186870117188D+02 3.606386184692D-01 0.000000000000D+00 2.000000000000D+00
   -1.359845849609D+04-2.898606300354D+00-0.000000000000D+00 0.000000000000D+00
13 15 02 28 08 45  0.0-4.735793918371D-04-9.094947017729D-13 3.174000000000D+04
    1.976585742188D+04 1.208000183105D+00 3.725290298462D-09 0.000000000000D+00
    1.194624072266D+04 8.821039199829D-01 0.000000000000D+00-2.000000000000D+00
   -1.084285009766D+04 3.179247856140D+00-0.000000000000D+00 0.000000000000D+00
11 15 02 28 09 15  0.0 1.888722181320D-06 0.000000000000D+00 3.240000000000D+04
   -2.706675781250D+03-2.516225814819D+00-1.862645149231D-09 0.000000000000D+00
    1.094546777344D+04-1.872436523438D+00-0.000000000000D+00 0.000000000000D+00
    2.286966650391D+04 6.064844131470D-01-1.862645149231D-09 0.000000000000D+00
 3 15 02 28 09 15  0.0 3.619026392698D-05 9.094947017729D-13 3.240000000000D+04
    1.102227441406D+04-3.681430816650D-01 0.000000000000D+00 0.000000000000D+00
   -9.913445800781D+03 2.815446853638D+00 0.000000000000D+00 5.000000000000D+00
    2.079587011719D+04 1.537257194519D+00-2.793967723846D-09 0.000000000000D+00
 2 15 02 28 09 15  0.0 1.207506284118D-04 1.818989403546D-12 3.240000000000D+04
    9.356564941406D+03-2.483444213867D-01-0.000000000000D+00 0.000000000000D+00
    9.577692382813D+03 2.959276199341D+00-0.000000000000D+00-4.000000000000D+00
    2.173434130859D+04-1.201606750488D+00-2.793967723846D-09 0.000000000000D+00
12 15 02 28 09 15  0.0-3.925524652004D-06 1.818989403546D-12 3.240000000000D+04
    1.352541894531D+04-1.321067810059D+00 9.313225746155D-10 0.000000000000D+00
    1.743934814453D+04-1.184258460999D+00-0.000000000000D+00-1.000000000000D+00
    1.289695068359D+04 2.966376304626D+00-1.862645149231D-09 0.000000000000D+00
13 15 02 28 09 15  0.0-4.735821858048D-04-9.094947017729D-13 3.240000000000D+04
    2.147557373047D+04 6.525459289551D-01 2.793967723846D-09 0.000000000000D+00
    1.291322900391D+04 2.112226486206D-01-0.000000000000D+00-2.000000000000D+00
   -4.775118164063D+03 3.518943786621D+00-9.313225746155D-10 0.000000000000D+00
17 15 02 28 09 15  0.0 1.505939289927D-04 9.094947017729D-13 3.240000000000D+04
    2.369244775391D+04-3.382911682129D-01 2.793967723846D-09 0.000000000000D+00
   -9.172499023438D+03-6.053543090820D-02 0.000000000000D+00 4.000000000000D+00
   -2.057544921875D+03-3.572391510010D+00-9.313225746155D-10 0.000000000000D+00
18 15 02 28 09 15  0.0 3.975164145231D-05 1.818989403546D-12 3.240000000000D+04
    1.557424707031D+04 1.757106781006D+00 9.313225746155D-10 0.000000000000D+00
   -1.414279052734D+04-9.226064682007D-01 0.000000000000D+00-3.000000000000D+00
    1.449532763672D+04-2.785153388977D+00-1.862645149231D-09 0.000000000000D+00
19 15 02 28 09 15  0.0-1.194411888719D-04-0.000000000000D+00 3.324000000000D+04
   -3.366773925781D+03 2.920978546143D+00-1.862645149231D-09 0.000000000000D+00
   -1.021402294922D+04-1.226288795471D+00 0.000000000000D+00 3.000000000000D+00
    2.313626562500D+04-1.163349151611D-01-1.862645149231D-09 0.000000000000D+00
 3 15 02 28 09 45  0.0 3.619305789471D-05 9.094947017729D-13 3.420000000000D+04
    1.072574267578D+04 5.290412902832D-02-0.000000000000D+00 0.000000000000D+00
   -4.543867675781D+03 3.102236747742D+00 0.000000000000D+00 5.000000000000D+00
    2.272637060547D+04 5.938558578491D-01-2.793967723846D-09 0.000000000000D+00
 2 15 02 28 09 45  0.0 1.207543537021D-04 1.818989403546D-12 3.420000000000D+04
    9.302628417969D+03 1.711082458496D-01-0.000000000000D+00 0.000000000000D+00
    1.458654980469D+04 2.559542655945D+00-0.000000000000D+00-4.000000000000D+00
    1.876091308594D+04-2.080934524536D+00-1.862645149231D-09 0.000000000000D+00
12 15 02 28 09 45  0.0-3.921799361706D-06 9.094947017729D-13 3.420000000000D+04
    1.047496679688D+04-2.055912971497D+00-0.000000000000D+00 0.000000000000D+00
    1.517678027344D+04-1.285084724426D+00-0.000000000000D+00-1.000000000000D+00
    1.767193164063D+04 2.304631233215D+00-1.862645149231D-09 0.000000000000D+00
13 15 02 28 09 45  0.0-4.735849797726D-04-9.094947017729D-13 3.420000000000D+04
    2.199662695313D+04-9.906005859375D-02 2.793967723846D-09 0.000000000000D+00
    1.280293408203D+04-3.002128601074D-01-0.000000000000D+00-2.000000000000D+00
    1.661752441406D+03 3.586687088013D+00-9.313225746155D-10 0.000000000000D+00
17 15 02 28 09 45  0.0 1.505957916379D-04 9.094947017729D-13 3.420000000000D+04
    2.239432714844D+04-1.075080871582D+00 3.725290298462D-09 0.000000000000D+00
   -8.862271484375D+03 4.358730316162D-01-0.000000000000D+00 4.000000000000D+00
   -8.324784179688D+03-3.345833778381D+00-9.313225746155D-10 0.000000000000D+00
18 15 02 28 09 45  0.0 3.975536674261D-05 1.818989403546D-12 3.420000000000D+04
    1.802800244141D+04 9.618291854858D-01 1.862645149231D-09 0.000000000000D+00
   -1.571478222656D+04-7.803688049316D-01 0.000000000000D+00-3.000000000000D+00
    8.988745117188D+03-3.293722152710D+00-1.862645149231D-09 0.000000000000D+00
